CREW DRAGON 4           
1 52318U 22042A   22143.57912155  .00010717  00000+0  19800-3 0  9992
2 52318  51.6434  98.4640 0005026 147.1299   4.6316 15.49630252341365
2022-043A               
1 52320U 22043A   22144.19733578  .00012385  00000+0  52540-3 0  9996
2 52320  97.4717 219.7526 0013146 167.7244 276.8032 15.23172059  3812
2022-043B               
1 52321U 22043B   22144.16367826  .00043078  00000+0  16916-2 0  9992
2 52321  97.4706 219.7729 0013467 196.3974 194.0903 15.25492816  3816
2022-043C               
1 52322U 22043C   22144.16605492  .00013126  00000+0  53098-3 0  9991
2 52322  97.4714 219.7699 0013732 197.2790 193.1561 15.24756646  3816
2022-043D               
1 52323U 22043D   22144.16515047  .00021450  00000+0  39018-3 0  9993
2 52323  97.5629 220.9701 0087138 294.1918 121.6834 15.45338580  3861
2022-043E               
1 52324U 22043E   22144.14816744  .00112100  00000+0  38327-2 0  9994
2 52324  97.4626 219.8398 0020762 218.7947 339.4819 15.29608586  3816
2022-043F               
1 52325U 22043F   22144.20142004  .00068168  00000+0  39056-2 0  9997
2 52325  97.2215 218.3571 0109906 129.9393 231.1622 15.07280238  3762
2022-043G               
1 52326U 22043G   22144.18941372  .00027146  00000+0  23909-2 0  9991
2 52326  97.2933 217.8683 0157711  81.0727 280.8299 14.87283696  3718
2022-043H               
1 52327U 22043H   22144.21467145  .00047535  00000+0  27580-2 0  9990
2 52327  97.7070 219.8023 0118946 132.6633 228.4698 15.06115633  3776
2022-043J               
1 52328U 22043J   22144.19951179  .00034971  00000+0  30949-2 0  9996
2 52328  97.7277 219.1186 0160013  82.8854 279.0504 14.86807698  3709
STARLINK-3889           
1 52331U 22045A   22144.19542685 -.00326979  00000+0 -39154-2 0  9991
2 52331  53.2126 316.3224 0002576  68.0942 292.0347 15.61374127  6375
STARLINK-3831           
1 52332U 22045B   22143.91668981 -.00709077  00000+0 -89849-2 0  9999
2 52332  53.2176 317.6467 0001229  81.0911 149.5016 15.61152249  1305
STARLINK-3847           
1 52333U 22045C   22143.91668981 -.00709026  00000+0 -89825-2 0  9998
2 52333  53.2176 317.6533 0001259  74.1924 157.1237 15.61156889  1304
STARLINK-3880           
1 52334U 22045D   22143.91668981 -.00709259  00000+0 -89809-2 0  9999
2 52334  53.2176 317.6715 0001224  81.3166 152.1694 15.61170945  1308
STARLINK-3814           
1 52335U 22045E   22143.91668981 -.00709176  00000+0 -89781-2 0  9997
2 52335  53.2176 317.6781 0001243  80.6152 153.5939 15.61175542  1305
STARLINK-3823           
1 52336U 22045F   22143.91668981 -.00709286  00000+0 -89779-2 0  9997
2 52336  53.2176 317.6897 0001255  73.1209 161.8113 15.61180371  1309
STARLINK-3797           
1 52337U 22045G   22143.91668981 -.00709004  00000+0 -89806-2 0  9997
2 52337  53.2176 317.6594 0001254  78.5403 153.4992 15.61161525  1300
STARLINK-3815           
1 52338U 22045H   22144.19466018 -.00356933  00000+0 -42977-2 0  9993
2 52338  53.2125 316.3450 0001211  79.0008 281.1143 15.61336840  6375
STARLINK-3792           
1 52339U 22045J   22143.91668981 -.00709386  00000+0 -89761-2 0  9992
2 52339  53.2176 317.7023 0001225  79.8244 156.5539 15.61189720  1303
STARLINK-3818           
1 52340U 22045K   22143.91668981 -.00002052  00000+0 -10179-4 0  9999
2 52340  53.2143 317.3489 0001108  75.0144 333.9795 15.73255814  6321
STARLINK-3843           
1 52341U 22045L   22144.25002315 -.00715740  00000+0 -92454-2 0  9990
2 52341  53.2176 316.0743 0001102  97.2801 212.5588 15.60678895  6378
STARLINK-3850           
1 52342U 22045M   22143.91668981  .00081706  00000+0  58304-3 0  9993
2 52342  53.2142 317.3456 0001092  70.7209 339.6744 15.73114994  1305
STARLINK-3849           
1 52343U 22045N   22144.19452036 -.00335092  00000+0 -40153-2 0  9991
2 52343  53.2136 316.3878 0001636  70.8746 289.2446 15.61388133  6373
STARLINK-3851           
1 52344U 22045P   22144.16667824  .00047217  00000+0  34091-3 0  9994
2 52344  53.2144 316.1042 0001064  78.5795 310.0174 15.73064833  6369
STARLINK-3852           
1 52345U 22045Q   22144.16667824 -.00470858  00000+0 -35092-2 0  9999
2 52345  53.2155 316.1107 0001087  53.2342 331.8533 15.73416222  6359
STARLINK-3812           
1 52346U 22045R   22144.16667824 -.00023355  00000+0 -16261-3 0  9994
2 52346  53.2141 316.1041 0001068  62.6144 326.0268 15.73177360  6364
STARLINK-3826           
1 52347U 22045S   22144.16667824  .00010421  00000+0  78741-4 0  9995
2 52347  53.2143 316.1092 0001107  75.9339 310.4170 15.73148602  6366
STARLINK-3829           
1 52348U 22045T   22144.16667824 -.00028543  00000+0 -19983-3 0  9994
2 52348  53.2141 316.1006 0000974  70.8852 319.1238 15.73179571  6365
STARLINK-3819           
1 52349U 22045U   22143.91668981 -.00006106  00000+0 -39186-4 0  9991
2 52349  53.2130 317.3441 0001035  79.2079 331.6535 15.73163260  1309
STARLINK-3754           
1 52350U 22045V   22144.16667824  .00025704  00000+0  18745-3 0  9996
2 52350  53.2141 316.1003 0001034  74.8281 315.5844 15.73142608  6367
STARLINK-3816           
1 52351U 22045W   22144.16667824 -.00029722  00000+0 -20768-3 0  9991
2 52351  53.2147 316.1033 0001033  51.9205 337.3317 15.73247882  6365
STARLINK-3838           
1 52352U 22045X   22144.16667824 -.00043682  00000+0 -30777-3 0  9994
2 52352  53.2140 316.0956 0001363  38.9664 353.3178 15.73249753  6364
STARLINK-3807           
1 52353U 22045Y   22144.16667824 -.00060335  00000+0 -42771-3 0  9996
2 52353  53.2141 316.0985 0001122  67.9669 323.1406 15.73246582  6364
STARLINK-3876           
1 52354U 22045Z   22143.91668981  .00016909  00000+0  12489-3 0  9993
2 52354  53.2138 317.3295 0001181  62.0220 355.9794 15.73153968  1300
STARLINK-3877           
1 52355U 22045AA  22144.16667824  .00046705  00000+0  33578-3 0  9996
2 52355  53.2141 316.0972 0001185  66.4948 325.1268 15.73169311  6367
STARLINK-3801           
1 52356U 22045AB  22144.16667824 -.00044671  00000+0 -31492-3 0  9992
2 52356  53.2143 316.0934 0001036  80.8269 312.6061 15.73247655  6369
STARLINK-3821           
1 52357U 22045AC  22144.16667824  .00032533  00000+0  23546-3 0  9996
2 52357  53.2170 316.0934 0000604  63.7793 328.8816 15.73186024  6361
STARLINK-3837           
1 52358U 22045AD  22144.16667824 -.00048618  00000+0 -34342-3 0  9996
2 52358  53.2141 316.0873 0001012  74.6644 321.7587 15.73239053  6360
STARLINK-3853           
1 52359U 22045AE  22144.16667824 -.00057481  00000+0 -40719-3 0  9990
2 52359  53.2141 316.0926 0001299  74.4647 319.5799 15.73242489  6365
STARLINK-3824           
1 52360U 22045AF  22144.16667824 -.00062309  00000+0 -44199-3 0  9993
2 52360  53.2143 316.0841 0001197  72.9685 324.6679 15.73244369  6359
STARLINK-3728           
1 52361U 22045AG  22143.91668981  .00021163  00000+0  15475-3 0  9997
2 52361  53.2138 317.3282 0001096  69.6596 348.9957 15.73210827  6337
STARLINK-3848           
1 52362U 22045AH  22143.91668981  .00017218  00000+0  12703-3 0  9995
2 52362  53.2137 317.3219 0001118  78.5730 342.9442 15.73164781  1303
STARLINK-3830           
1 52363U 22045AJ  22144.16667824 -.00065465  00000+0 -46484-3 0  9991
2 52363  53.2139 316.0881 0001225  76.6556 319.1988 15.73240873  6360
STARLINK-3820           
1 52364U 22045AK  22144.16667824 -.00067986  00000+0 -48324-3 0  9997
2 52364  53.2137 316.0804 0001207  75.5837 323.8615 15.73232196  6373
STARLINK-3874           
1 52365U 22045AL  22144.16667824 -.00163101  00000+0 -11759-2 0  9995
2 52365  53.2150 316.0856 0000988  74.0625 322.9421 15.73288656  6366
STARLINK-3808           
1 52366U 22045AM  22144.16667824  .00038983  00000+0  28126-3 0  9990
2 52366  53.2135 316.0777 0000834  76.1159 324.4130 15.73168766  6371
STARLINK-3817           
1 52367U 22045AN  22144.16667824  .00044424  00000+0  31978-3 0  9997
2 52367  53.2136 316.0822 0000799  72.9645 325.7930 15.73162238  6367
STARLINK-3834           
1 52368U 22045AP  22144.16667824 -.00051773  00000+0 -36584-3 0  9993
2 52368  53.2136 316.0745 0001031  81.7274 320.6354 15.73257829  6363
STARLINK-3841           
1 52369U 22045AQ  22144.16667824  .00043644  00000+0  31454-3 0  9991
2 52369  53.2136 316.0796 0000880  79.5238 320.4348 15.73142287  6379
STARLINK-3827           
1 52370U 22045AR  22143.91668981  .00026819  00000+0  19515-3 0  9999
2 52370  53.2134 317.3152 0001194  68.5023 356.0099 15.73168714  6335
STARLINK-3798           
1 52371U 22045AS  22144.16667824 -.00047210  00000+0 -33313-3 0  9995
2 52371  53.2135 316.0755 0000854  68.6339 333.1924 15.73250744  6366
STARLINK-3796           
1 52372U 22045AT  22144.16667824 -.00068611  00000+0 -48740-3 0  9994
2 52372  53.2132 316.0709 0000929  67.9186 335.7041 15.73250224  6369
STARLINK-3550           
1 52373U 22045AU  22144.16667824 -.00061558  00000+0 -43539-3 0  9999
2 52373  53.2133 316.0690 0001457  70.5704 334.6052 15.73306213  6374
STARLINK-3762           
1 52374U 22045AV  22144.16667824 -.00128248  00000+0 -91871-3 0  9992
2 52374  53.2132 316.0692 0001053  66.7266 337.7004 15.73317676  6374
STARLINK-3785           
1 52375U 22045AW  22143.91668981 -.00005357  00000+0 -33855-4 0  9994
2 52375  53.2134 317.3115 0001032  64.9853   1.3512 15.73152473  6336
STARLINK-3767           
1 52376U 22045AX  22144.16667824 -.00062657  00000+0 -44432-3 0  9996
2 52376  53.2132 316.0661 0000979  76.5651 329.3600 15.73254420  6371
STARLINK-3805           
1 52377U 22045AY  22144.16667824 -.00023229  00000+0 -16136-3 0  9999
2 52377  53.2134 316.0682 0001197  68.4114 336.9648 15.73227001  6364
STARLINK-3806           
1 52378U 22045AZ  22143.91668981  .00079204  00000+0  56492-3 0  9998
2 52378  53.2133 317.3028 0000936  64.4317   6.0918 15.73138598  6337
STARLINK-3800           
1 52379U 22045BA  22144.16667824  .00044615  00000+0  32248-3 0  9993
2 52379  53.2132 316.0658 0000903  90.2498 316.1154 15.73063543  6371
